NORAD_CAT_ID,OBJECT_NAME,OBJECT_TYPE,EPOCH,MEAN_MOTION,ECCENTRICITY,INCLINATION,RA_OF_ASC_NODE,ARG_OF_PERICENTER,MEAN_ANOMALY,BSTAR,MEAN_MOTION_DOT,MEAN_MOTION_DDOT,TLE_LINE0,TLE_LINE1,TLE_LINE2,SEMIMAJOR_AXIS,PERIOD,APOGEE,PERIGEE,DECAYED
53266.0,STARLINK-4058,PAYLOAD,2024-03-29 10:27:27,15.08854509,0.000149,53.2159,142.5704,88.7175,271.3987,3.3146e-06,-2.35e-06,0.0,0 STARLINK-4058,1 53266U 22086AA  24089.43573797 -.00000235  00000-0  33146-5 0  9991,2 53266  53.2159 142.5704 0001490  88.7175 271.3987 15.08854509 93848,6917.836,95.437,540.732,538.67,0.0
53266.0,STARLINK-4058,PAYLOAD,2024-03-30 10:18:15,15.08844058,0.0001444,53.2162,138.1117,91.7,268.4157,-1.1144e-05,-4.65e-06,0.0,0 STARLINK-4058,1 53266U 22086AA  24090.42934196 -.00000465  00000-0 -11144-4 0  9995,2 53266  53.2162 138.1117 0001444  91.7000 268.4157 15.08844058 93812,6917.868,95.437,540.732,538.734,0.0
53266.0,STARLINK-4058,PAYLOAD,2024-03-30 19:50:34,15.08842629,0.0001444,53.2161,136.3277,91.967,268.1487,-1.1028e-05,-4.63e-06,0.0,0 STARLINK-4058,1 53266U 22086AA  24090.82678250 -.00000463  00000-0 -11028-4 0  9994,2 53266  53.2161 136.3277 0001444  91.9670 268.1487 15.08842629 94055,6917.872,95.437,540.736,538.738,0.0
53266.0,STARLINK-4058,PAYLOAD,2024-03-31 11:44:25,15.0884387,0.0001565,53.2166,133.3547,97.9923,262.1247,7.2347e-05,8.64e-06,0.0,0 STARLINK-4058,1 53266U 22086AA  24091.48917963  .00000864  00000-0  72347-4 0  9998,2 53266  53.2166 133.3547 0001565  97.9923 262.1247 15.08843870 93975,6917.869,95.437,540.816,538.651,0.0
53266.0,STARLINK-4058,PAYLOAD,2024-03-31 19:41:21,15.0883363,0.0001673,53.2156,131.867,94.2173,265.9011,2.0818e-05,4.3e-07,0.0,0 STARLINK-4058,1 53266U 22086AA  24091.82038869  .00000043  00000-0  20818-4 0  9990,2 53266  53.2156 131.8670 0001673  94.2173 265.9011 15.08833630 94021,6917.9,95.438,540.922,538.607,0.0
53266.0,STARLINK-4058,PAYLOAD,2024-04-01 11:35:13,15.08826515,0.000155,53.2163,128.8937,94.7993,265.3176,-1.0452e-05,-4.54e-06,0.0,0 STARLINK-4058,1 53266U 22086AA  24092.48279710 -.00000454  00000-0 -10452-4 0  9996,2 53266  53.2163 128.8937 0001550  94.7993 265.3176 15.08826515 94121,6917.922,95.438,540.859,538.714,0.0
53266.0,STARLINK-4058,PAYLOAD,2024-04-02 09:50:38,15.08829756,0.0001552,53.2162,124.7291,94.9532,265.1637,-3.5031e-05,-8.45e-06,0.0,0 STARLINK-4058,1 53266U 22086AA  24093.41016463 -.00000845  00000-0 -35031-4 0  9998,2 53266  53.2162 124.7291 0001552  94.9532 265.1637 15.08829756 94446,6917.912,95.438,540.85,538.703,0.0
53266.0,STARLINK-4058,PAYLOAD,2024-04-02 19:22:56,15.08839277,0.0001596,53.2163,122.9454,96.9778,263.1396,-3.3647e-05,-8.23e-06,0.0,0 STARLINK-4058,1 53266U 22086AA  24093.80760021 -.00000823  00000-0 -33647-4 0  9994,2 53266  53.2163 122.9454 0001596  96.9778 263.1396 15.08839277 94326,6917.883,95.438,540.852,538.644,0.0
53266.0,STARLINK-4058,PAYLOAD,2024-04-03 08:06:01,15.08838021,0.0001531,53.216,120.566,96.0777,264.0389,0.00012426,1.69e-05,0.0,0 STARLINK-4058,1 53266U 22086AA  24094.33751887  .00001690  00000-0  12426-3 0  9995,2 53266  53.2160 120.5660 0001531  96.0777 264.0389 15.08838021 94581,6917.886,95.438,540.811,538.692,0.0
53266.0,STARLINK-4058,PAYLOAD,2024-04-03 19:13:43,15.08840495,0.0001582,53.2164,118.484,97.208,262.9092,0.00023865,3.512e-05,0.0,0 STARLINK-4058,1 53266U 22086AA  24094.80119465  .00003512  00000-0  23865-3 0  9991,2 53266  53.2164 118.4840 0001582  97.2080 262.9092 15.08840495 94651,6917.879,95.438,540.838,538.649,0.0
53266.0,STARLINK-4058,PAYLOAD,2024-04-04 04:46:01,15.08848589,0.0001558,53.2163,116.6991,98.5436,261.5732,0.00024173,3.562e-05,0.0,0 STARLINK-4058,1 53266U 22086AA  24095.19862871  .00003562  00000-0  24173-3 0  9998,2 53266  53.2163 116.6991 0001558  98.5436 261.5732 15.08848589 94534,6917.854,95.437,540.797,538.641,0.0
53266.0,STARLINK-4058,PAYLOAD,2024-04-04 07:56:47,15.08853734,0.0001549,53.2164,116.1045,98.1422,261.9745,0.00022527,3.3e-05,0.0,0 STARLINK-4058,1 53266U 22086AA  24095.33110634  .00003300  00000-0  22527-3 0  9998,2 53266  53.2164 116.1045 0001549  98.1422 261.9745 15.08853734 94739,6917.838,95.437,540.775,538.632,0.0
53266.0,STARLINK-4058,PAYLOAD,2024-04-05 04:36:48,15.08846527,0.0001596,53.2163,112.2381,99.7241,260.3932,4.0051e-05,3.5e-06,0.0,0 STARLINK-4058,1 53266U 22086AA  24096.19223104  .00000350  00000-0  40051-4 0  9995,2 53266  53.2163 112.2381 0001596  99.7241 260.3932 15.08846527 94683,6917.86,95.437,540.83,538.621,0.0
53266.0,STARLINK-4058,PAYLOAD,2024-04-05 10:58:21,15.08848875,0.0001553,53.2161,111.0502,90.8782,269.2388,2.8462e-05,1.65e-06,0.0,0 STARLINK-4058,1 53266U 22086AA  24096.45718838  .00000165  00000-0  28462-4 0  9993,2 53266  53.2161 111.0502 0001553  90.8782 269.2388 15.08848875 94904,6917.853,95.437,540.793,538.644,0.0
53266.0,STARLINK-4058,PAYLOAD,2024-04-06 07:38:21,15.08847482,0.0001616,53.2166,107.1838,90.7043,269.4135,-6.8356e-05,-1.376e-05,0.0,0 STARLINK-4058,1 53266U 22086AA  24097.31830745 -.00001376  00000-0 -68356-4 0  9994,2 53266  53.2166 107.1838 0001616  90.7043 269.4135 15.08847482 94855,6917.858,95.437,540.84,538.605,0.0
53266.0,STARLINK-4058,PAYLOAD,2024-04-06 17:10:40,15.08846096,0.000153,53.216,105.3997,90.6418,269.475,-0.0001244,-2.268e-05,0.0,0 STARLINK-4058,1 53266U 22086AA  24097.71574846 -.00002268  00000-0 -12440-3 0  9998,2 53266  53.2160 105.3997 0001530  90.6418 269.4750 15.08846096 95095,6917.862,95.437,540.785,538.668,0.0
53266.0,STARLINK-4058,PAYLOAD,2024-04-07 10:39:56,15.0882521,0.0001483,53.2175,102.1288,91.1826,268.9336,-8.3228e-05,-1.612e-05,0.0,0 STARLINK-4058,1 53266U 22086AA  24098.44440398 -.00001612  00000-0 -83228-4 0  9998,2 53266  53.2175 102.1288 0001483  91.1826 268.9336 15.08825210 95207,6917.926,95.438,540.817,538.765,0.0
53266.0,STARLINK-4058,PAYLOAD,2024-04-07 17:01:29,15.0882733,0.0001478,53.2173,100.9389,90.087,270.0291,-0.00011199,-2.069e-05,0.0,0 STARLINK-4058,1 53266U 22086AA  24098.70936579 -.00002069  00000-0 -11199-3 0  9992,2 53266  53.2173 100.9389 0001478  90.0870 270.0291 15.08827330 95247,6917.919,95.438,540.807,538.762,0.0
53266.0,STARLINK-4058,PAYLOAD,2024-04-08 10:30:43,15.0883327,0.0001407,53.217,97.6676,90.7198,269.3956,7.9728e-06,-1.61e-06,0.0,0 STARLINK-4058,1 53266U 22086AA  24099.43800354 -.00000161  00000-0  79728-5 0  9998,2 53266  53.2170  97.6676 0001407  90.7198 269.3956 15.08833270 95178,6917.901,95.438,540.739,538.793,0.0
53266.0,STARLINK-4058,PAYLOAD,2024-04-08 16:52:14,15.08853843,0.0001005,53.2177,96.4801,108.2307,251.8795,0.00020586,2.991e-05,0.0,0 STARLINK-4058,1 53266U 22086AA  24099.70294128  .00002991  00000-0  20586-3 0  9992,2 53266  53.2177  96.4801 0001005 108.2307 251.8795 15.08853843 95213,6917.838,95.437,540.398,539.008,0.0
53266.0,STARLINK-4058,PAYLOAD,2024-04-09 03:59:55,15.08860179,0.0001149,53.2164,94.3951,97.7672,262.3451,0.0003138,4.712e-05,0.0,0 STARLINK-4058,1 53266U 22086AA  24100.16660984  .00004712  00000-0  31380-3 0  9999,2 53266  53.2164  94.3951 0001149  97.7672 262.3451 15.08860179 95281,6917.819,95.436,540.479,538.889,0.0
53266.0,STARLINK-4058,PAYLOAD,2024-04-09 08:46:03,15.08865263,0.0001462,53.217,93.5049,101.6764,258.4393,0.00039747,6.048e-05,0.0,0 STARLINK-4058,1 53266U 22086AA  24100.36532223  .00006048  00000-0  39747-3 0  9994,2 53266  53.2170  93.5049 0001462 101.6764 258.4393 15.08865263 95495,6917.803,95.436,540.68,538.657,0.0
53266.0,STARLINK-4058,PAYLOAD,2024-04-09 16:43:01,15.08835274,0.0001685,53.217,92.0177,83.8154,276.303,0.00010988,1.461e-05,0.0,0 STARLINK-4058,1 53266U 22086AA  24100.69655052  .00001461  00000-0  10988-3 0  9996,2 53266  53.2170  92.0177 0001685  83.8154 276.3030 15.08835274 95364,6917.895,95.438,540.925,538.594,0.0
53266.0,STARLINK-4058,PAYLOAD,2024-04-09 23:04:34,15.0883623,0.0002368,53.2177,90.8277,83.8142,276.312,5.6535e-05,6.11e-06,0.0,0 STARLINK-4058,1 53266U 22086AA  24100.96151438  .00000611  00000-0  56535-4 0  9990,2 53266  53.2177  90.8277 0002368  83.8142 276.3120 15.08836230 95581,6917.892,95.438,541.395,538.119,0.0
53266.0,STARLINK-4058,PAYLOAD,2024-04-10 05:26:08,15.08823772,0.0001448,53.2181,89.6386,87.2472,272.8686,-7.1317e-05,-1.422e-05,0.0,0 STARLINK-4058,1 53266U 22086AA  24101.22648529 -.00001422  00000-0 -71317-4 0  9990,2 53266  53.2181  89.6386 0001448  87.2472 272.8686 15.08823772 95445,6917.93,95.439,540.797,538.793,0.0
53266.0,STARLINK-4058,PAYLOAD,2024-04-10 16:33:49,15.08831598,0.0001572,53.2178,87.5562,92.0704,268.0468,-2.493e-05,-6.85e-06,0.0,0 STARLINK-4058,1 53266U 22086AA  24101.69016033 -.00000685  00000-0 -24930-4 0  9999,2 53266  53.2178  87.5562 0001572  92.0704 268.0468 15.08831598 95512,6917.906,95.438,540.859,538.684,0.0
53266.0,STARLINK-4058,PAYLOAD,2024-04-10 22:55:21,15.08848949,0.0001605,53.2176,86.3656,91.5531,268.5645,-0.00019101,-3.327e-05,0.0,0 STARLINK-4058,1 53266U 22086AA  24101.95511310 -.00003327  00000-0 -19101-3 0  9995,2 53266  53.2176  86.3656 0001605  91.5531 268.5645 15.08848949 95734,6917.853,95.437,540.828,538.608,0.0
53266.0,STARLINK-4058,PAYLOAD,2024-04-11 05:16:53,15.08855455,0.0001582,53.2176,85.1777,88.4907,271.6266,-0.00014563,-2.606e-05,0.0,0 STARLINK-4058,1 53266U 22086AA  24102.22006532 -.00002606  00000-0 -14563-3 0  9997,2 53266  53.2176  85.1777 0001582  88.4907 271.6266 15.08855455 95599,6917.833,95.437,540.793,538.604,0.0
53266.0,STARLINK-4058,PAYLOAD,2024-04-11 08:27:39,15.08858317,0.0001651,53.2176,84.5816,85.171,274.9471,-0.00015717,-2.79e-05,0.0,0 STARLINK-4058,1 53266U 22086AA  24102.35254320 -.00002790  00000-0 -15717-3 0  9997,2 53266  53.2176  84.5816 0001651  85.1710 274.9471 15.08858317 95795,6917.824,95.436,540.832,538.547,0.0
53266.0,STARLINK-4058,PAYLOAD,2024-04-11 16:24:35,15.08856866,0.0001631,53.2177,83.0954,83.4361,276.6817,-0.00017534,-3.079e-05,0.0,0 STARLINK-4058,1 53266U 22086AA  24102.68374191 -.00003079  00000-0 -17534-3 0  9992,2 53266  53.2177  83.0954 0001631  83.4361 276.6817 15.08856866 95840,6917.829,95.436,540.822,538.566,0.0
